{
  "type": "FeatureCollection",
  "features": [
    {
      "type": "Feature",
      "id": "yukon",
      "properties": {
        "name": "Yukon"
      },
      "geometry": {
        "type": "Polygon",
        "coordinates": [
          [
            [
              -136,
              64
            ],
            [
              -124.5,
              62.39
            ],
            [
              -113,
              64
            ],
            [
              -108.77,
              57.8
            ],
            [
              -103,
              53
            ],
            [
              -115.5,
              51.25
            ],
            [
              -128,
              53
            ],
            [
              -132.77,
              57.94
            ],
            [
              -136,
              64
            ]
          ]
        ]
      }
    },
    {
      "type": "Feature",
      "id": "canadian_shield",
      "properties": {
        "name": "Canadian Shield"
      },
      "geometry": {
        "type": "Polygon",
        "coordinates": [
          [
            [
              -113,
              64
            ],
            [
              -89.0,
              60.64
            ],
            [
              -65,
              64
            ],
            [
              -62.77,
              58.08
            ],
            [
              -59,
              53
            ],
            [
              -81.0,
              49.92
            ],
            [
              -103,
              53
            ],
            [
              -108.77,
              57.8
            ],
            [
              -113,
              64
            ]
          ]
        ]
      }
    },
    {
      "type": "Feature",
      "id": "cascadia",
      "properties": {
        "name": "Cascadia"
      },
      "geometry": {
        "type": "Polygon",
        "coordinates": [
          [
            [
              -128,
              53
            ],
            [
              -115.5,
              51.25
            ],
            [
              -103,
              53
            ],
            [
              -101.7,
              47.72
            ],
            [
              -99,
              43
            ],
            [
              -111.5,
              41.25
            ],
            [
              -124,
              43
            ],
            [
              -126.7,
              47.72
            ],
            [
              -128,
              53
            ]
          ]
        ]
      }
    },
    {
      "type": "Feature",
      "id": "great_lakes",
      "properties": {
        "name": "Great Lakes"
      },
      "geometry": {
        "type": "Polygon",
        "coordinates": [
          [
            [
              -103,
              53
            ],
            [
              -81.0,
              49.92
            ],
            [
              -59,
              53
            ],
            [
              -64.8,
              47.09
            ],
            [
              -72,
              43
            ],
            [
              -85.5,
              41.11
            ],
            [
              -99,
              43
            ],
            [
              -101.7,
              47.72
            ],
            [
              -103,
              53
            ]
          ]
        ]
      }
    },
    {
      "type": "Feature",
      "id": "great_basin",
      "properties": {
        "name": "Great Basin"
      },
      "geometry": {
        "type": "Polygon",
        "coordinates": [
          [
            [
              -124,
              43
            ],
            [
              -111.5,
              41.25
            ],
            [
              -99,
              43
            ],
            [
              -99.2,
              37.93
            ],
            [
              -98,
              33
            ],
            [
              -107.5,
              31.67
            ],
            [
              -117,
              33
            ],
            [
              -121.2,
              37.51
            ],
            [
              -124,
              43
            ]
          ]
        ]
      }
    },
    {
      "type": "Feature",
      "id": "appalachia",
      "properties": {
        "name": "Appalachia"
      },
      "geometry": {
        "type": "Polygon",
        "coordinates": [
          [
            [
              -99,
              43
            ],
            [
              -85.5,
              41.11
            ],
            [
              -72,
              43
            ],
            [
              -75.8,
              37.37
            ],
            [
              -81,
              33
            ],
            [
              -89.5,
              31.81
            ],
            [
              -98,
              33
            ],
            [
              -99.2,
              37.93
            ],
            [
              -99,
              43
            ]
          ]
        ]
      }
    },
    {
      "type": "Feature",
      "id": "sonora",
      "properties": {
        "name": "Sonora"
      },
      "geometry": {
        "type": "Polygon",
        "coordinates": [
          [
            [
              -117,
              33
            ],
            [
              -107.5,
              31.67
            ],
            [
              -98,
              33
            ],
            [
              -97.56,
              28.86
            ],
            [
              -96,
              25
            ],
            [
              -102.0,
              24.16
            ],
            [
              -108,
              25
            ],
            [
              -113.06,
              28.37
            ],
            [
              -117,
              33
            ]
          ]
        ]
      }
    },
    {
      "type": "Feature",
      "id": "gulf_coast",
      "properties": {
        "name": "Gulf Coast"
      },
      "geometry": {
        "type": "Polygon",
        "coordinates": [
          [
            [
              -98,
              33
            ],
            [
              -89.5,
              31.81
            ],
            [
              -81,
              33
            ],
            [
              -82.94,
              28.65
            ],
            [
              -86,
              25
            ],
            [
              -91.0,
              24.3
            ],
            [
              -96,
              25
            ],
            [
              -97.56,
              28.86
            ],
            [
              -98,
              33
            ]
          ]
        ]
      }
    },
    {
      "type": "Feature",
      "id": "mexican_plateau",
      "properties": {
        "name": "Mexican Plateau"
      },
      "geometry": {
        "type": "Polygon",
        "coordinates": [
          [
            [
              -108,
              25
            ],
            [
              -102.0,
              24.16
            ],
            [
              -96,
              25
            ],
            [
              -92.99,
              21.01
            ],
            [
              -89,
              18
            ],
            [
              -94.0,
              17.3
            ],
            [
              -99,
              18
            ],
            [
              -103.99,
              20.87
            ],
            [
              -108,
              25
            ]
          ]
        ]
      }
    },
    {
      "type": "Feature",
      "id": "yucatan",
      "properties": {
        "name": "Yucatan"
      },
      "geometry": {
        "type": "Polygon",
        "coordinates": [
          [
            [
              -96,
              25
            ],
            [
              -91.0,
              24.3
            ],
            [
              -86,
              25
            ],
            [
              -85.49,
              21.36
            ],
            [
              -84,
              18
            ],
            [
              -86.5,
              17.65
            ],
            [
              -89,
              18
            ],
            [
              -92.99,
              21.01
            ],
            [
              -96,
              25
            ]
          ]
        ]
      }
    },
    {
      "type": "Feature",
      "id": "guatemala",
      "properties": {
        "name": "Guatemala"
      },
      "geometry": {
        "type": "Polygon",
        "coordinates": [
          [
            [
              -99,
              18
            ],
            [
              -94.0,
              17.3
            ],
            [
              -89,
              18
            ],
            [
              -87.06,
              13.65
            ],
            [
              -84,
              10
            ],
            [
              -86.5,
              9.65
            ],
            [
              -89,
              10
            ],
            [
              -94.56,
              13.3
            ],
            [
              -99,
              18
            ]
          ]
        ]
      }
    },
    {
      "type": "Feature",
      "id": "panama",
      "properties": {
        "name": "Panama"
      },
      "geometry": {
        "type": "Polygon",
        "coordinates": [
          [
            [
              -89,
              18
            ],
            [
              -86.5,
              17.65
            ],
            [
              -84,
              18
            ],
            [
              -81.56,
              13.58
            ],
            [
              -78,
              10
            ],
            [
              -81.0,
              9.58
            ],
            [
              -84,
              10
            ],
            [
              -87.06,
              13.65
            ],
            [
              -89,
              18
            ]
          ]
        ]
      }
    },
    {
      "type": "Feature",
      "id": "colombia",
      "properties": {
        "name": "Colombia"
      },
      "geometry": {
        "type": "Polygon",
        "coordinates": [
          [
            [
              -89,
              10
            ],
            [
              -86.5,
              9.65
            ],
            [
              -84,
              10
            ],
            [
              -77.56,
              5.02
            ],
            [
              -70,
              2
            ],
            [
              -74.5,
              1.3699999999999999
            ],
            [
              -79,
              2
            ],
            [
              -84.56,
              5.3
            ],
            [
              -89,
              10
            ]
          ]
        ]
      }
    },
    {
      "type": "Feature",
      "id": "guiana",
      "properties": {
        "name": "Guiana"
      },
      "geometry": {
        "type": "Polygon",
        "coordinates": [
          [
            [
              -84,
              10
            ],
            [
              -81.0,
              9.58
            ],
            [
              -78,
              10
            ],
            [
              -65.56,
              4.18
            ],
            [
              -52,
              2
            ],
            [
              -61.0,
              0.7399999999999998
            ],
            [
              -70,
              2
            ],
            [
              -77.56,
              5.02
            ],
            [
              -84,
              10
            ]
          ]
        ]
      }
    },
    {
      "type": "Feature",
      "id": "peru",
      "properties": {
        "name": "Peru"
      },
      "geometry": {
        "type": "Polygon",
        "coordinates": [
          [
            [
              -79,
              2
            ],
            [
              -74.5,
              1.3699999999999999
            ],
            [
              -70,
              2
            ],
            [
              -68.84,
              -4.28
            ],
            [
              -66,
              -10
            ],
            [
              -73.5,
              -11.05
            ],
            [
              -81,
              -10
            ],
            [
              -79.16,
              -4.14
            ],
            [
              -79,
              2
            ]
          ]
        ]
      }
    },
    {
      "type": "Feature",
      "id": "amazonas",
      "properties": {
        "name": "Amazonas"
      },
      "geometry": {
        "type": "Polygon",
        "coordinates": [
          [
            [
              -70,
              2
            ],
            [
              -61.0,
              0.7399999999999998
            ],
            [
              -52,
              2
            ],
            [
              -44.34,
              -5.19
            ],
            [
              -35,
              -10
            ],
            [
              -50.5,
              -12.17
            ],
            [
              -66,
              -10
            ],
            [
              -68.84,
              -4.28
            ],
            [
              -70,
              2
            ]
          ]
        ]
      }
    },
    {
      "type": "Feature",
      "id": "andes",
      "properties": {
        "name": "Andes"
      },
      "geometry": {
        "type": "Polygon",
        "coordinates": [
          [
            [
              -81,
              -10
            ],
            [
              -73.5,
              -11.05
            ],
            [
              -66,
              -10
            ],
            [
              -64.84,
              -16.28
            ],
            [
              -62,
              -22
            ],
            [
              -69.0,
              -22.98
            ],
            [
              -76,
              -22
            ],
            [
              -79.34,
              -16.35
            ],
            [
              -81,
              -10
            ]
          ]
        ]
      }
    },
    {
      "type": "Feature",
      "id": "brazilian_plateau",
      "properties": {
        "name": "Brazilian Plateau"
      },
      "geometry": {
        "type": "Polygon",
        "coordinates": [
          [
            [
              -66,
              -10
            ],
            [
              -50.5,
              -12.17
            ],
            [
              -35,
              -10
            ],
            [
              -36.66,
              -16.35
            ],
            [
              -40,
              -22
            ],
            [
              -51.0,
              -23.54
            ],
            [
              -62,
              -22
            ],
            [
              -64.84,
              -16.28
            ],
            [
              -66,
              -10
            ]
          ]
        ]
      }
    },
    {
      "type": "Feature",
      "id": "atacama",
      "properties": {
        "name": "Atacama"
      },
      "geometry": {
        "type": "Polygon",
        "coordinates": [
          [
            [
              -76,
              -22
            ],
            [
              -69.0,
              -22.98
            ],
            [
              -62,
              -22
            ],
            [
              -61.73,
              -27.57
            ],
            [
              -63,
              -33
            ],
            [
              -68.0,
              -33.7
            ],
            [
              -73,
              -33
            ],
            [
              -75.27,
              -27.71
            ],
            [
              -76,
              -22
            ]
          ]
        ]
      }
    },
    {
      "type": "Feature",
      "id": "la_plata",
      "properties": {
        "name": "La Plata"
      },
      "geometry": {
        "type": "Polygon",
        "coordinates": [
          [
            [
              -62,
              -22
            ],
            [
              -51.0,
              -23.54
            ],
            [
              -40,
              -22
            ],
            [
              -44.23,
              -28.2
            ],
            [
              -50,
              -33
            ],
            [
              -56.5,
              -33.91
            ],
            [
              -63,
              -33
            ],
            [
              -61.73,
              -27.57
            ],
            [
              -62,
              -22
            ]
          ]
        ]
      }
    },
    {
      "type": "Feature",
      "id": "patagonia",
      "properties": {
        "name": "Patagonia"
      },
      "geometry": {
        "type": "Polygon",
        "coordinates": [
          [
            [
              -73,
              -33
            ],
            [
              -68.0,
              -33.7
            ],
            [
              -63,
              -33
            ],
            [
              -63.73,
              -38.71
            ],
            [
              -66,
              -44
            ],
            [
              -70.0,
              -44.56
            ],
            [
              -74,
              -44
            ],
            [
              -72.73,
              -38.57
            ],
            [
              -73,
              -33
            ]
          ]
        ]
      }
    },
    {
      "type": "Feature",
      "id": "pampas",
      "properties": {
        "name": "Pampas"
      },
      "geometry": {
        "type": "Polygon",
        "coordinates": [
          [
            [
              -63,
              -33
            ],
            [
              -56.5,
              -33.91
            ],
            [
              -50,
              -33
            ],
            [
              -55.23,
              -39.34
            ],
            [
              -62,
              -44
            ],
            [
              -64.0,
              -44.28
            ],
            [
              -66,
              -44
            ],
            [
              -63.73,
              -38.71
            ],
            [
              -63,
              -33
            ]
          ]
        ]
      }
    },
    {
      "type": "Feature",
      "id": "austral_andes",
      "properties": {
        "name": "Austral Andes"
      },
      "geometry": {
        "type": "Polygon",
        "coordinates": [
          [
            [
              -74,
              -44
            ],
            [
              -70.0,
              -44.56
            ],
            [
              -66,
              -44
            ],
            [
              -65.73,
              -49.57
            ],
            [
              -67,
              -55
            ],
            [
              -69.0,
              -55.28
            ],
            [
              -71,
              -55
            ],
            [
              -73.27,
              -49.71
            ],
            [
              -74,
              -44
            ]
          ]
        ]
      }
    },
    {
      "type": "Feature",
      "id": "tierra_del_fuego",
      "properties": {
        "name": "Tierra del Fuego"
      },
      "geometry": {
        "type": "Polygon",
        "coordinates": [
          [
            [
              -66,
              -44
            ],
            [
              -64.0,
              -44.28
            ],
            [
              -62,
              -44
            ],
            [
              -62.73,
              -49.71
            ],
            [
              -65,
              -55
            ],
            [
              -66.0,
              -55.14
            ],
            [
              -67,
              -55
            ],
            [
              -65.73,
              -49.57
            ],
            [
              -66,
              -44
            ]
          ]
        ]
      }
    }
  ]
}
